#aV2013 11  8  0  0  0.00000000     288 DD+AD WGS84 FIT  NGA
## 1765 432000.00000000   300.00000000 56604 0.0000000000000
+   31     1  2  3  4  5  6  7  8  9 10 11 12 13 14 15 16 17
+         18 19 20 21 22 23 24 25 26 27 28 29 31 32  0  0  0
+          0  0  0  0  0  0  0  0  0  0  0  0  0  0  0  0  0
+          0  0  0  0  0  0  0  0  0  0  0  0  0  0  0  0  0
+          0  0  0  0  0  0  0  0  0  0  0  0  0  0  0  0  0
++         2  2  2  2  2  2  2  2  2  2  2  2  2  2  2  2  2
++         2  2  2  2  2  2  2  2  2  2  2  2  2  2  2  0  0
++         0  0  0  0  0  0  0  0  0  0  0  0  0  0  0  0  0
++         0  0  0  0  0  0  0  0  0  0  0  0  0  0  0  0  0
++         0  0  0  0  0  0  0  0  0  0  0  0  0  0  0  0  0
%c cc cc ccc ccc cccc cccc cccc cccc ccccc ccccc ccccc ccccc
%c cc cc ccc ccc cccc cccc cccc cccc ccccc ccccc ccccc ccccc
%f  0.0000000  0.000000000  0.00000000000  0.000000000000000
%f  0.0000000  0.000000000  0.00000000000  0.000000000000000
%i    0    0    0    0      0      0      0      0         0
%i    0    0    0    0      0      0      0      0         0
/*      NGA, ST. LOUIS,MO.                                  
/*   EPHEMERIS COMPUTED FROM  1 DAYS OF DATA
/*   EPOCHA SMOOTHER  
/* CCCCCCCCCCCCCCCCCCCCCCCCCCCCCCCCCCCCCCCCCCCCCCCCCCCCCCCCC
*  2013 11  8  2 25  0.00000000                                                 
P  1 -15926.991032   -197.158968  21236.390958     92.266138                    
V  1  -8870.447758 -25537.762616  -6771.418374      0.033558                    
P  2  14135.846740  21634.650651  -6951.038158    460.103846                    
V  2    611.796803   9489.906327  29263.330164      0.021397                    
P  3 -22186.988175  -9253.649921 -12024.183210    283.201881                    
V  3  14483.378506  -2454.765023 -25831.564393      0.051315                    
P  4   5591.667504  25246.047883   5133.393087      2.936146                    
V  4  -5949.035462  -5190.822099  30475.208545      0.004961                    
P  5  11297.369972  10650.604905 -21580.935365   -397.932821                    
V  5 -17491.900409  21051.599984   1389.718988      0.006275                    
P  6 -16819.225778 -13262.523692 -15890.654791    139.576946                    
V  6  20282.484814    -60.684256 -20958.286799      0.174648                    
P  7  -8749.757657  15373.993477 -19640.993675    278.289619                    
V  7  -9462.145987 -23332.962905 -14314.258639      0.041697                    
P  8  -2278.867710  23190.086496 -12006.261317      9.703988                    
V  8  -5541.260327 -14743.235246 -27700.632517      0.003068                    
P  9   -376.493064  23447.541410 -12864.992948    281.413798                    
V  9  -7001.538831 -13929.539279 -26404.594405      0.027950                    
P 10  -4384.131616  21663.748223 -14728.353882   -100.873709                    
V 10 -13929.298843  12278.493905  23120.669906     -0.015793                    
P 11 -20629.265669  -6474.696054  15095.670341   -435.914593                    
V 11  -9774.943607 -17964.019733 -20184.886348     -0.034551                    
P 12  19855.080998  -6056.773664  16400.445002    166.776782                    
V 12 -12761.569380  16671.261956  21742.331077      0.022451                    
P 13 -18753.916606   7103.250339 -17617.560261     62.076060                    
V 13 -20901.439499  -7014.505093  19427.607286     -0.038587                    
P 14     21.369083 -15357.210160  21899.961597    211.254273                    
V 14  26529.434275   6180.695715   4209.961853     -0.010523                    
P 15  26503.911558   3305.890951    308.688542   -146.004717                    
V 15     -6.297394   3294.809606 -31084.892274     -0.019350                    
P 16 -10381.999892 -10359.210316 -22167.847333   -242.430059                    
V 16  19086.204708 -20496.714306    967.253823      0.010407                    
P 17   -529.915903  15343.282420  21919.329331    -38.691689                    
V 17 -26696.880976  -5448.236932   2965.186649     -0.035269                    
P 18  16159.341916 -20837.773958    887.910316    283.727405                    
V 18   3646.620394   2139.873515 -31176.725059      0.020978                    
P 19 -25619.078168  -7750.612064  -1392.243869   -417.018875                    
V 19   2147.764879  -1863.559328 -31478.223836     -0.026760                    
P 20 -20180.620519  10753.070194  13261.969856    135.243416                    
V 20   7673.201571 -15767.173613  24203.812767      0.028655                    
P 21   7020.865610 -18011.533270 -17404.260764   -327.433196                    
V 21  10701.394135  21145.873789 -17490.973094     -0.018350                    
P 22   7551.599220 -22778.541501  11419.233792    193.937682                    
V 22  11721.332344  -8929.770392 -26164.596769      0.018481                    
P 23 -25367.385530   1470.351436  -8313.694449     32.140656                    
V 23  -9979.405693  -4318.412297  28955.141631     -0.033732                    
P 24  16889.905277   4878.087497  19923.295784    -16.981872                    
V 24   8031.088896  24016.705791 -12624.927921     -0.006850                    
P 25  19214.105484 -17277.500878   5851.020780    164.746597                    
V 25  -2902.577497   7327.677720  30967.575329      0.033021                    
P 26  20200.335183  13542.720137 -11688.512156    255.161670                    
V 26 -13659.128713  -2026.102352 -27175.211635     -0.102171                    
P 27 -19433.552959 -12473.206254 -13146.786821    -55.992951                    
V 27  16811.180283    495.652172 -25322.786340     -0.036628                    
P 28 -11329.410818  21979.837227  10049.528046    307.005761                    
V 28  -9445.524496   7496.712656 -28921.989890      0.031100                    
P 29  21662.035327  -5375.669374 -14330.735325    485.296508                    
V 29  17416.307702   5859.963689  24095.205907      0.030644                    
P 31  -6186.742929 -25437.438258   3593.977360    329.302478                    
V 31   3717.502320   3353.740380  31923.586687      0.006490                    
P 32 -17996.467178  -1480.940096  19386.981853   -532.050277                    
V 32  16040.337330 -18774.096583  14057.305963      0.043887                    
EOF
